NORAD_CAT_ID,OBJECT_NAME,OBJECT_TYPE,EPOCH,MEAN_MOTION,ECCENTRICITY,INCLINATION,RA_OF_ASC_NODE,ARG_OF_PERICENTER,MEAN_ANOMALY,BSTAR,MEAN_MOTION_DOT,MEAN_MOTION_DDOT,TLE_LINE0,TLE_LINE1,TLE_LINE2,SEMIMAJOR_AXIS,PERIOD,APOGEE,PERIGEE,DECAYED
53829.0,STARLINK-4759,PAYLOAD,2023-12-31 02:57:04,15.08844876,0.0001389,53.2167,293.5377,96.3366,263.7784,0.00016696,2.371e-05,0.0,0 STARLINK-4759,1 53829U 22114M   23365.12296668  .00002371  00000-0  16696-3 0  9990,2 53829  53.2167 293.5377 0001389  96.3366 263.7784 15.08844876 71582,6917.865,95.437,540.691,538.77,0.0
53829.0,STARLINK-4759,PAYLOAD,2023-12-31 18:50:55,15.08840423,0.0001594,53.2159,290.5661,86.1358,273.9816,0.00010284,1.349e-05,0.0,0 STARLINK-4759,1 53829U 22114M   23365.78537001  .00001349  00000-0  10284-3 0  9992,2 53829  53.2159 290.5661 0001594  86.1358 273.9816 15.08840423 71686,6917.879,95.438,540.847,538.641,0.0
53829.0,STARLINK-4759,PAYLOAD,2024-01-01 04:23:14,15.08843992,0.000145,53.2166,288.7804,91.2675,268.8484,0.00013208,1.815e-05,0.0,0 STARLINK-4759,1 53829U 22114M   24001.18280890  .00001815  00000-0  13208-3 0  9992,2 53829  53.2166 288.7804 0001450  91.2675 268.8484 15.08843992 72287,6917.868,95.437,540.736,538.73,0.0
53829.0,STARLINK-4759,PAYLOAD,2024-01-02 01:03:15,15.08852357,0.0001526,53.217,284.915,86.8885,273.2282,0.00020241,2.936e-05,0.0,0 STARLINK-4759,1 53829U 22114M   24002.04392523  .00002936  00000-0  20241-3 0  9995,2 53829  53.2170 284.9150 0001526  86.8885 273.2282 15.08852357 71876,6917.843,95.437,540.763,538.652,0.0
53829.0,STARLINK-4759,PAYLOAD,2024-01-02 04:14:01,15.08858816,0.0001522,53.2166,284.3193,88.8401,271.2766,0.00029567,4.423e-05,0.0,0 STARLINK-4759,1 53829U 22114M   24002.17640151  .00004423  00000-0  29567-3 0  9995,2 53829  53.2166 284.3193 0001522  88.8401 271.2766 15.08858816 72438,6917.823,95.436,540.741,538.635,0.0
53829.0,STARLINK-4759,PAYLOAD,2024-01-02 21:43:16,15.0884389,0.0001372,53.2165,281.0489,95.3705,264.7444,8.4896e-05,1.064e-05,0.0,0 STARLINK-4759,1 53829U 22114M   24002.90504643  .00001064  00000-0  84896-4 0  9996,2 53829  53.2165 281.0489 0001372  95.3705 264.7444 15.08843890 72540,6917.868,95.437,540.683,538.784,0.0
53829.0,STARLINK-4759,PAYLOAD,2024-01-03 00:54:02,15.08845797,0.0001425,53.2168,280.4544,87.2573,272.8583,0.00012231,1.659e-05,0.0,0 STARLINK-4759,1 53829U 22114M   24003.03752657  .00001659  00000-0  12231-3 0  9994,2 53829  53.2168 280.4544 0001425  87.2573 272.8583 15.08845797 72025,6917.863,95.437,540.713,538.742,0.0
53829.0,STARLINK-4759,PAYLOAD,2024-01-03 04:04:48,15.08846116,0.000142,53.2165,279.8591,91.7753,268.3402,0.00012879,1.763e-05,0.0,0 STARLINK-4759,1 53829U 22114M   24003.17000519  .00001763  00000-0  12879-3 0  9996,2 53829  53.2165 279.8591 0001420  91.7753 268.3402 15.08846116 72588,6917.862,95.437,540.709,538.744,0.0
53829.0,STARLINK-4759,PAYLOAD,2024-01-03 21:34:03,15.08838582,0.0001573,53.2173,276.5852,97.8237,262.2934,-6.6503e-05,-1.346e-05,0.0,0 STARLINK-4759,1 53829U 22114M   24003.89864865 -.00001346  00000-0 -66503-4 0  9990,2 53829  53.2173 276.5852 0001573  97.8237 262.2934 15.08838582 72697,6917.885,95.438,540.838,538.662,0.0
53829.0,STARLINK-4759,PAYLOAD,2024-01-04 03:55:35,15.08840157,0.0001546,53.2176,275.3959,98.6485,261.4682,-2.4676e-05,-6.81e-06,0.0,0 STARLINK-4759,1 53829U 22114M   24004.16360889 -.00000681  00000-0 -24676-4 0  9994,2 53829  53.2176 275.3959 0001546  98.6485 261.4682 15.08840157 72196,6917.88,95.438,540.814,538.675,0.0
53829.0,STARLINK-4759,PAYLOAD,2024-01-04 21:24:50,15.08841684,0.0001625,53.2177,272.1256,102.6116,257.5058,0.00013485,1.859e-05,0.0,0 STARLINK-4759,1 53829U 22114M   24004.89224762  .00001859  00000-0  13485-3 0  9994,2 53829  53.2177 272.1256 0001625 102.6116 257.5058 15.08841684 72848,6917.875,95.437,540.864,538.616,0.0
53829.0,STARLINK-4759,PAYLOAD,2024-01-05 00:35:36,15.08844212,0.0001573,53.2172,271.5309,94.3261,265.791,0.00016187,2.289e-05,0.0,0 STARLINK-4759,1 53829U 22114M   24005.02472656  .00002289  00000-0  16187-3 0  9997,2 53829  53.2172 271.5309 0001573  94.3261 265.7910 15.08844212 72865,6917.868,95.437,540.821,538.644,0.0
53829.0,STARLINK-4759,PAYLOAD,2024-01-05 16:29:28,15.08837682,0.0001582,53.2174,268.5644,92.9214,267.196,9.628e-05,1.245e-05,0.0,0 STARLINK-4759,1 53829U 22114M   24005.68713066  .00001245  00000-0  96280-4 0  9996,2 53829  53.2174 268.5644 0001582  92.9214 267.1960 15.08837682 72423,6917.887,95.438,540.847,538.658,0.0
53829.0,STARLINK-4759,PAYLOAD,2024-01-05 21:15:37,15.0883409,0.0001487,53.2175,267.6663,109.0466,251.0687,4.8896e-05,4.9e-06,0.0,0 STARLINK-4759,1 53829U 22114M   24005.88585587  .00000490  00000-0  48896-4 0  9994,2 53829  53.2175 267.6663 0001487 109.0466 251.0687 15.08834090 72998,6917.898,95.438,540.792,538.735,0.0
53829.0,STARLINK-4759,PAYLOAD,2024-01-06 03:37:10,15.08836003,0.000149,53.2172,266.4778,104.3678,255.748,1.1702e-05,-1.02e-06,0.0,0 STARLINK-4759,1 53829U 22114M   24006.15081278 -.00000102  00000-0  11702-4 0  9990,2 53829  53.2172 266.4778 0001490 104.3678 255.7480 15.08836003 73030,6917.893,95.438,540.788,538.727,0.0
53829.0,STARLINK-4759,PAYLOAD,2024-01-06 17:55:38,15.08839809,0.0001484,53.2178,263.8025,105.2941,254.8215,2.393e-05,9.3e-07,0.0,0 STARLINK-4759,1 53829U 22114M   24006.74697664  .00000093  00000-0  23930-4 0  9991,2 53829  53.2178 263.8025 0001484 105.2941 254.8215 15.08839809 72580,6917.881,95.438,540.773,538.719,0.0
53829.0,STARLINK-4759,PAYLOAD,2024-01-06 21:06:24,15.08840251,0.0001489,53.2178,263.2077,103.4014,256.7145,3.3752e-05,2.49e-06,0.0,0 STARLINK-4759,1 53829U 22114M   24006.87945580  .00000249  00000-0  33752-4 0  9994,2 53829  53.2178 263.2077 0001489 103.4014 256.7145 15.08840251 73146,6917.88,95.438,540.775,538.715,0.0
53829.0,STARLINK-4759,PAYLOAD,2024-01-07 01:52:34,15.08842034,0.0001377,53.2168,262.3157,95.3856,264.7293,4.1916e-05,3.79e-06,0.0,0 STARLINK-4759,1 53829U 22114M   24007.07817220  .00000379  00000-0  41916-4 0  9991,2 53829  53.2168 262.3157 0001377  95.3856 264.7293 15.08842034 73170,6917.874,95.437,540.692,538.787,0.0
53829.0,STARLINK-4759,PAYLOAD,2024-01-07 22:32:35,15.08840681,0.000139,53.2157,258.4498,90.5579,269.5572,9.6375e-05,1.246e-05,0.0,0 STARLINK-4759,1 53829U 22114M   24007.93929535  .00001246  00000-0  96375-4 0  9992,2 53829  53.2157 258.4498 0001390  90.5579 269.5572 15.08840681 73300,6917.878,95.438,540.705,538.782,0.0
53829.0,STARLINK-4759,PAYLOAD,2024-01-08 00:07:58,15.08840875,0.0001257,53.2157,258.1516,85.6342,274.4793,0.00016603,2.356e-05,0.0,0 STARLINK-4759,1 53829U 22114M   24008.00553555  .00002356  00000-0  16603-3 0  9994,2 53829  53.2157 258.1516 0001257  85.6342 274.4793 15.08840875 72778,6917.878,95.437,540.612,538.873,0.0
53829.0,STARLINK-4759,PAYLOAD,2024-01-08 22:23:22,15.08839359,0.000133,53.2156,253.9915,78.5155,281.5986,0.00019256,2.778e-05,0.0,0 STARLINK-4759,1 53829U 22114M   24008.93289823  .00002778  00000-0  19256-3 0  9995,2 53829  53.2156 253.9915 0001330  78.5155 281.5986 15.08839359 73452,6917.882,95.438,540.667,538.827,0.0
53829.0,STARLINK-4759,PAYLOAD,2024-01-09 22:14:09,15.08842063,0.0001452,53.2155,249.5309,72.3542,287.7608,8.5523e-05,1.073e-05,0.0,0 STARLINK-4759,1 53829U 22114M   24009.92649782  .00001073  00000-0  85523-4 0  9997,2 53829  53.2155 249.5309 0001452  72.3542 287.7608 15.08842063 73608,6917.874,95.437,540.744,538.735,0.0
53829.0,STARLINK-4759,PAYLOAD,2024-01-10 01:24:55,15.08847601,0.0001413,53.2163,248.9344,80.1782,279.9369,0.00010925,1.452e-05,0.0,0 STARLINK-4759,1 53829U 22114M   24010.05897320  .00001452  00000-0  10925-3 0  9990,2 53829  53.2163 248.9344 0001413  80.1782 279.9369 15.08847601 73081,6917.857,95.437,540.7,538.745,0.0
53829.0,STARLINK-4759,PAYLOAD,2024-01-10 18:54:10,15.0884183,0.0001443,53.2158,245.6626,92.8986,267.2172,5.3296e-05,5.6e-06,0.0,0 STARLINK-4759,1 53829U 22114M   24010.78761710  .00000560  00000-0  53296-4 0  9991,2 53829  53.2158 245.6626 0001443  92.8986 267.2172 15.08841830 73193,6917.875,95.437,540.738,538.742,0.0
53829.0,STARLINK-4759,PAYLOAD,2024-01-11 01:15:42,15.08846764,0.0001443,53.2162,244.4722,95.219,264.8966,8.4552e-05,1.058e-05,0.0,0 STARLINK-4759,1 53829U 22114M   24011.05257214  .00001058  00000-0  84552-4 0  9993,2 53829  53.2162 244.4722 0001443  95.2190 264.8966 15.08846764 73775,6917.86,95.437,540.723,538.726,0.0
53829.0,STARLINK-4759,PAYLOAD,2024-01-11 20:20:19,15.08844291,0.0001481,53.2163,240.9028,107.1503,252.9652,5.2516e-05,5.48e-06,0.0,0 STARLINK-4759,1 53829U 22114M   24011.84745265  .00000548  00000-0  52516-4 0  9996,2 53829  53.2163 240.9028 0001481 107.1503 252.9652 15.08844291 73356,6917.867,95.437,540.757,538.708,0.0
53829.0,STARLINK-4759,PAYLOAD,2024-01-11 21:55:42,15.08846431,0.0001469,53.2163,240.6054,105.6571,254.4583,6.6411e-05,7.69e-06,0.0,0 STARLINK-4759,1 53829U 22114M   24011.91369075  .00000769  00000-0  66411-4 0  9999,2 53829  53.2163 240.6054 0001469 105.6571 254.4583 15.08846431 73905,6917.861,95.437,540.742,538.709,0.0
53829.0,STARLINK-4759,PAYLOAD,2024-01-12 20:11:07,15.0883426,0.000144,53.2168,236.441,110.0585,250.0563,-7.2738e-07,-3e-06,0.0,0 STARLINK-4759,1 53829U 22114M   24012.84106270 -.00000300  00000-0 -72738-6 0  9992,2 53829  53.2168 236.4410 0001440 110.0585 250.0563 15.08834260 73506,6917.898,95.438,540.759,538.767,0.0
53829.0,STARLINK-4759,PAYLOAD,2024-01-12 21:46:31,15.08832966,0.0001332,53.2166,236.1445,100.0789,260.0354,-2.57e-05,-6.97e-06,0.0,0 STARLINK-4759,1 53829U 22114M   24012.90730462 -.00000697  00000-0 -25700-4 0  9999,2 53829  53.2166 236.1445 0001332 100.0789 260.0354 15.08832966 74055,6917.902,95.438,540.688,538.845,0.0
53829.0,STARLINK-4759,PAYLOAD,2024-01-13 20:01:54,15.08847874,0.0001204,53.2163,231.9831,89.9364,270.1766,7.3519e-05,8.83e-06,0.0,0 STARLINK-4759,1 53829U 22114M   24013.83465647  .00000883  00000-0  73519-4 0  9998,2 53829  53.2163 231.9831 0001204  89.9364 270.1766 15.08847874 73654,6917.856,95.437,540.554,538.888,0.0
